0 COSMOS 252 DEB
1 03559U 68097M   13281.20530054  .00001247  00000-0  31679-3 0  6547
2 03559 062.2984 201.8861 0584362 174.8709 344.0982 13.84755892196979
0 COSMOS 252 DEB
1 03559U 68097M   13283.36170376  .00001601  00000-0  39723-3 0  6556
2 03559 062.2983 195.6933 0584060 175.3951 294.0597 13.84770598197278
0 COSMOS 252 DEB
1 03559U 68097M   13285.72986546  .00001950  00000-0  47612-3 0  6566
2 03559 062.2989 188.8939 0584012 175.9711 219.7714 13.84775132197602
0 COSMOS 252 DEB
1 03559U 68097M   13288.13611103  .00003836  00000-0  90317-3 0  6574
2 03559 062.2988 181.9838 0583733 176.5609 335.4002 13.84785580197935
0 COSMOS 252 DEB
1 03559U 68097M   13290.16055352  .00002995  00000-0  71365-3 0  6586
2 03559 062.2981 176.1701 0583467 177.0588 347.7389 13.84795276198218
0 COSMOS 252 DEB
1 03559U 68097M   13290.77748157  .00003515  00000-0  79450-3 0  6600
2 03559 062.2981 174.3997 0583637 177.2007 183.3014 13.84799078198305
0 COSMOS 252 DEB
1 03559U 68097M   13292.16766442  .00003068  00000-0  73123-3 0  6617
2 03559 062.2976 170.4059 0583174 177.5483 273.7592 13.84803924198493
0 COSMOS 252 DEB
1 03559U 68097M   13294.19076541  .00003670  00000-0  86817-3 0  6620
2 03559 062.2973 164.5953 0582955 178.0387 279.5689 13.84814946198770
